{"type": "FeatureCollection", "features": [ {"type": "Feature", "properties": {"norad_id": 37834, "name": "INTELSAT 18 (IS-18)", "group": "intelsat", "lat": -0.028938582307367792, "lon": -129.50767904951138, "alt_km": 35781.13668337041, "timestamp": "2025-12-16T21:38:56.837893+00:00", "meta": {"OBJECT_NAME": "INTELSAT 18 (IS-18)", "OBJECT_ID": "2011-056A", "EPOCH": "2025-12-16T07:10:38.599104", "MEAN_MOTION": 1.00272349, "ECCENTRICITY": 0.00016859, "INCLINATION": 0.0079, "RA_OF_ASC_NODE": 310.4917, "ARG_OF_PERICENTER": 328.4555, "MEAN_ANOMALY": 93.8998, "EPHEMERIS_TYPE": 0, "CLASSIFICATION_TYPE": "U", "NORAD_CAT_ID": 37834, "ELEMENT_SET_NO": 999, "REV_AT_EPOCH": 5197, "BSTAR": 0, "MEAN_MOTION_DOT": 7.6e-07, "MEAN_MOTION_DDOT": 0}, "tle": {"line1": "1 37834U 11056A   25350.29905786  .00000076  00000+0  00000+0 0  9990", "line2": "2 37834   0.0079 310.4917 0001685 328.4555  93.8998  1.00272349 51976"}}, "geometry": {"type": "Point", "coordinates": [-129.50767904951138, -0.028938582307367792]}}, {"type": "Feature", "properties": {"norad_id": 38098, "name": "INTELSAT 22 (IS-22)", "group": "intelsat", "lat": 0.04815194152090118, "lon": 122.60023354304217, "alt_km": 35793.8554820087, "timestamp": "2025-12-16T21:38:56.837905+00:00", "meta": {"OBJECT_NAME": "INTELSAT 22 (IS-22)", "OBJECT_ID": "2012-011A", "EPOCH": "2025-12-16T03:25:42.411072", "MEAN_MOTION": 1.0027056, "ECCENTRICITY": 0.00018378, "INCLINATION": 0.039, "RA_OF_ASC_NODE": 51.443, "ARG_OF_PERICENTER": 234.8195, "MEAN_ANOMALY": 282.3004, "EPHEMERIS_TYPE": 0, "CLASSIFICATION_TYPE": "U", "NORAD_CAT_ID": 38098, "ELEMENT_SET_NO": 999, "REV_AT_EPOCH": 535, "BSTAR": 0, "MEAN_MOTION_DOT": 0, "MEAN_MOTION_DDOT": 0}, "tle": {"line1": "1 38098U 12011A   25350.14285198  .00000000  00000+0  00000+0 0  9994", "line2": "2 38098   0.0390  51.4430 0001837 234.8195 282.3004  1.00270560  5353"}}, "geometry": {"type": "Point", "coordinates": [122.60023354304217, 0.04815194152090118]}}, {"type": "Feature", "properties": {"norad_id": 38356, "name": "INTELSAT 19 (IS-19)", "group": "intelsat", "lat": -0.0283578729626353, "lon": -143.50639530497736, "alt_km": 35778.79790621324, "timestamp": "2025-12-16T21:38:56.837917+00:00", "meta": {"OBJECT_NAME": "INTELSAT 19 (IS-19)", "OBJECT_ID": "2012-030A", "EPOCH": "2025-12-16T07:36:38.526912", "MEAN_MOTION": 1.00271964, "ECCENTRICITY": 0.00032096, "INCLINATION": 0.0085, "RA_OF_ASC_NODE": 337.2149, "ARG_OF_PERICENTER": 297.2796, "MEAN_ANOMALY": 90.8891, "EPHEMERIS_TYPE": 0, "CLASSIFICATION_TYPE": "U", "NORAD_CAT_ID": 38356, "ELEMENT_SET_NO": 999, "REV_AT_EPOCH": 4861, "BSTAR": 0, "MEAN_MOTION_DOT": -3.3e-07, "MEAN_MOTION_DDOT": 0}, "tle": {"line1": "1 38356U 12030A   25350.31711258 -.00000033  00000+0  00000+0 0  9999", "line2": "2 38356   0.0085 337.2149 0003209 297.2796  90.8891  1.00271964 48619"}}, "geometry": {"type": "Point", "coordinates": [-143.50639530497736, -0.0283578729626353]}}, {"type": "Feature", "properties": {"norad_id": 38740, "name": "INTELSAT 20 (IS-20)", "group": "intelsat", "lat": 0.002986802596777267, "lon": 118.97457794017221, "alt_km": 35781.224706270055, "timestamp": "2025-12-16T21:38:56.837930+00:00", "meta": {"OBJECT_NAME": "INTELSAT 20 (IS-20)", "OBJECT_ID": "2012-043A", "EPOCH": "2025-12-16T03:24:35.019072", "MEAN_MOTION": 1.00271015, "ECCENTRICITY": 0.00028939, "INCLINATION": 0.0114, "RA_OF_ASC_NODE": 90.9309, "ARG_OF_PERICENTER": 93.3287, "MEAN_ANOMALY": 20.4188, "EPHEMERIS_TYPE": 0, "CLASSIFICATION_TYPE": "U", "NORAD_CAT_ID": 38740, "ELEMENT_SET_NO": 999, "REV_AT_EPOCH": 4891, "BSTAR": 0, "MEAN_MOTION_DOT": -1e-08, "MEAN_MOTION_DDOT": 0}, "tle": {"line1": "1 38740U 12043A   25350.14207198 -.00000001  00000+0  00000+0 0  9999", "line2": "2 38740   0.0114  90.9309 0002893  93.3287  20.4188  1.00271015 48916"}}, "geometry": {"type": "Point", "coordinates": [118.97457794017221, 0.002986802596777267]}}, {"type": "Feature", "properties": {"norad_id": 38749, "name": "INTELSAT 21 (IS-21)", "group": "intelsat", "lat": -0.024570552636841218, "lon": -7.468906698080696, "alt_km": 35785.99712516949, "timestamp": "2025-12-16T21:38:56.837942+00:00", "meta": {"OBJECT_NAME": "INTELSAT 21 (IS-21)", "OBJECT_ID": "2012-045A", "EPOCH": "2025-12-16T02:48:34.099776", "MEAN_MOTION": 1.00271285, "ECCENTRICITY": 0.00016386, "INCLINATION": 0.0362, "RA_OF_ASC_NODE": 78.745, "ARG_OF_PERICENTER": 186.4372, "MEAN_ANOMALY": 163.9752, "EPHEMERIS_TYPE": 0, "CLASSIFICATION_TYPE": "U", "NORAD_CAT_ID": 38749, "ELEMENT_SET_NO": 999, "REV_AT_EPOCH": 4868, "BSTAR": 0, "MEAN_MOTION_DOT": -2.62e-06, "MEAN_MOTION_DDOT": 0}, "tle": {"line1": "1 38749U 12045A   25350.11706134 -.00000262  00000+0  00000+0 0  9990", "line2": "2 38749   0.0362  78.7450 0001638 186.4372 163.9752  1.00271285 48689"}}, "geometry": {"type": "Point", "coordinates": [-7.468906698080696, -0.024570552636841218]}}, {"type": "Feature", "properties": {"norad_id": 38867, "name": "INTELSAT 23 (IS-23)", "group": "intelsat", "lat": -0.02453054642538174, "lon": -2.4510793104790625, "alt_km": 35786.2682410671, "timestamp": "2025-12-16T21:38:56.837955+00:00", "meta": {"OBJECT_NAME": "INTELSAT 23 (IS-23)", "OBJECT_ID": "2012-057A", "EPOCH": "2025-12-16T06:15:26.154432", "MEAN_MOTION": 1.00276152, "ECCENTRICITY": 4.252e-05, "INCLINATION": 0.0415, "RA_OF_ASC_NODE": 95.6573, "ARG_OF_PERICENTER": 123.5397, "MEAN_ANOMALY": 266.8407, "EPHEMERIS_TYPE": 0, "CLASSIFICATION_TYPE": "U", "NORAD_CAT_ID": 38867, "ELEMENT_SET_NO": 999, "REV_AT_EPOCH": 4812, "BSTAR": 0, "MEAN_MOTION_DOT": -2.61e-06, "MEAN_MOTION_DDOT": 0}, "tle": {"line1": "1 38867U 12057A   25350.26071938 -.00000261  00000+0  00000+0 0  9996", "line2": "2 38867   0.0415  95.6573 0000425 123.5397 266.8407  1.00276152 48122"}}, "geometry": {"type": "Point", "coordinates": [-2.4510793104790625, -0.02453054642538174]}}, {"type": "Feature", "properties": {"norad_id": 39360, "name": "FM-6", "group": "intelsat", "lat": -0.01340938251657996, "lon": -65.60929163052246, "alt_km": 35792.26716831681, "timestamp": "2025-12-16T21:38:56.837966+00:00", "meta": {"OBJECT_NAME": "FM-6", "OBJECT_ID": "2013-058A", "EPOCH": "2025-12-15T23:06:25.377408", "MEAN_MOTION": 1.00270283, "ECCENTRICITY": 0.0003085, "INCLINATION": 0.008, "RA_OF_ASC_NODE": 60.0775, "ARG_OF_PERICENTER": 117.5796, "MEAN_ANOMALY": 137.6619, "EPHEMERIS_TYPE": 0, "CLASSIFICATION_TYPE": "U", "NORAD_CAT_ID": 39360, "ELEMENT_SET_NO": 999, "REV_AT_EPOCH": 4423, "BSTAR": 0, "MEAN_MOTION_DOT": 6e-08, "MEAN_MOTION_DDOT": 0}, "tle": {"line1": "1 39360U 13058A   25349.96279372  .00000006  00000+0  00000+0 0  9990", "line2": "2 39360   0.0080  60.0775 0003085 117.5796 137.6619  1.00270283 44237"}}, "geometry": {"type": "Point", "coordinates": [-65.60929163052246, -0.01340938251657996]}}, {"type": "Feature", "properties": {"norad_id": 40271, "name": "INTELSAT 30 (IS-30)", "group": "intelsat", "lat": -0.023709028000130427, "lon": -44.55431874153257, "alt_km": 35790.50496160031, "timestamp": "2025-12-16T21:38:56.837978+00:00", "meta": {"OBJECT_NAME": "INTELSAT 30 (IS-30)", "OBJECT_ID": "2014-062A", "EPOCH": "2025-12-16T08:22:38.632800", "MEAN_MOTION": 1.00271088, "ECCENTRICITY": 0.00015671, "INCLINATION": 0.0129, "RA_OF_ASC_NODE": 16.2483, "ARG_OF_PERICENTER": 68.5049, "MEAN_ANOMALY": 31.0989, "EPHEMERIS_TYPE": 0, "CLASSIFICATION_TYPE": "U", "NORAD_CAT_ID": 40271, "ELEMENT_SET_NO": 999, "REV_AT_EPOCH": 496, "BSTAR": 0, "MEAN_MOTION_DOT": -1.27e-06, "MEAN_MOTION_DDOT": 0}, "tle": {"line1": "1 40271U 14062A   25350.34905825 -.00000127  00000+0  00000+0 0  9997", "line2": "2 40271   0.0129  16.2483 0001567  68.5049  31.0989  1.00271088  4969"}}, "geometry": {"type": "Point", "coordinates": [-44.55431874153257, -0.023709028000130427]}}, {"type": "Feature", "properties": {"norad_id": 40333, "name": "DIRECTV 14", "group": "intelsat", "lat": -0.013556787139352114, "lon": -48.71720607175735, "alt_km": 35787.29849280955, "timestamp": "2025-12-16T21:38:56.837990+00:00", "meta": {"OBJECT_NAME": "DIRECTV 14", "OBJECT_ID": "2014-078B", "EPOCH": "2025-12-16T07:23:38.673600", "MEAN_MOTION": 1.00270858, "ECCENTRICITY": 2.361e-05, "INCLINATION": 0.0023, "RA_OF_ASC_NODE": 34.4154, "ARG_OF_PERICENTER": 77.5514, "MEAN_ANOMALY": 344.9197, "EPHEMERIS_TYPE": 0, "CLASSIFICATION_TYPE": "U", "NORAD_CAT_ID": 40333, "ELEMENT_SET_NO": 999, "REV_AT_EPOCH": 4021, "BSTAR": 0, "MEAN_MOTION_DOT": -1.02e-06, "MEAN_MOTION_DDOT": 0}, "tle": {"line1": "1 40333U 14078B   25350.30808650 -.00000102  00000+0  00000+0 0  9990", "line2": "2 40333   0.0023  34.4154 0000236  77.5514 344.9197  1.00270858 40216"}}, "geometry": {"type": "Point", "coordinates": [-48.71720607175735, -0.013556787139352114]}}, {"type": "Feature", "properties": {"norad_id": 40663, "name": "DIRECTV 15", "group": "intelsat", "lat": -0.03563084692095838, "lon": -52.37073189866911, "alt_km": 35786.66899951693, "timestamp": "2025-12-16T21:38:56.838002+00:00", "meta": {"OBJECT_NAME": "DIRECTV 15", "OBJECT_ID": "2015-026A", "EPOCH": "2025-12-16T08:22:38.632800", "MEAN_MOTION": 1.00269509, "ECCENTRICITY": 1.898e-05, "INCLINATION": 0.0407, "RA_OF_ASC_NODE": 83.5884, "ARG_OF_PERICENTER": 309.1975, "MEAN_ANOMALY": 75.241, "EPHEMERIS_TYPE": 0, "CLASSIFICATION_TYPE": "U", "NORAD_CAT_ID": 40663, "ELEMENT_SET_NO": 999, "REV_AT_EPOCH": 3863, "BSTAR": 0, "MEAN_MOTION_DOT": -7.9e-07, "MEAN_MOTION_DDOT": 0}, "tle": {"line1": "1 40663U 15026A   25350.34905825 -.00000079  00000+0  00000+0 0  9999", "line2": "2 40663   0.0407  83.5884 0000189 309.1975  75.2410  1.00269509 38631"}}, "geometry": {"type": "Point", "coordinates": [-52.37073189866911, -0.03563084692095838]}}]}